[{"OBJECT_NAME":"STARLINK-11106 [DTC]","OBJECT_ID":"2024-091N","EPOCH":"2026-03-09T15:59:31.930656","MEAN_MOTION":15.69689086,"ECCENTRICITY":0.00010159,"INCLINATION":53.1592,"RA_OF_ASC_NODE":206.0841,"ARG_OF_PERICENTER":104.7289,"MEAN_ANOMALY":255.3842,"EPHEMERIS_TYPE":0,"CLASSIFICATION_TYPE":"U","NORAD_CAT_ID":59765,"ELEMENT_SET_NO":999,"REV_AT_EPOCH":10551,"BSTAR":-6.532133e-6,"MEAN_MOTION_DOT":-1.379e-5,"MEAN_MOTION_DDOT":0},{"OBJECT_NAME":"ISS OBJECT XT","OBJECT_ID":"1998-067XT","EPOCH":"2026-03-09T23:09:29.137248","MEAN_MOTION":15.69333449,"ECCENTRICITY":0.00047012,"INCLINATION":51.6253,"RA_OF_ASC_NODE":64.2319,"ARG_OF_PERICENTER":78.1098,"MEAN_ANOMALY":282.0426,"EPHEMERIS_TYPE":0,"CLASSIFICATION_TYPE":"U","NORAD_CAT_ID":66907,"ELEMENT_SET_NO":999,"REV_AT_EPOCH":1522,"BSTAR":0.0013746382,"MEAN_MOTION_DOT":0.00167047,"MEAN_MOTION_DDOT":0}]
